{
  "links" : {
    "next" : "https://api.nasa.gov/neo/rest/v1/feed?start_date=2010-12-16&end_date=2010-12-16&detailed=true&api_key=t0TVs3DtDT2H8Oy2Zy8m2eVrNsAVKAexjcZXUckd",
    "prev" : "https://api.nasa.gov/neo/rest/v1/feed?start_date=2010-12-14&end_date=2010-12-14&detailed=true&api_key=t0TVs3DtDT2H8Oy2Zy8m2eVrNsAVKAexjcZXUckd",
    "self" : "https://api.nasa.gov/neo/rest/v1/feed?start_date=2010-12-15&end_date=2010-12-15&detailed=true&api_key=t0TVs3DtDT2H8Oy2Zy8m2eVrNsAVKAexjcZXUckd"
  },
  "element_count" : 3,
  "near_earth_objects" : {
    "2010-12-15" : [ {
      "links" : {
        "self" : "https://api.nasa.gov/neo/rest/v1/neo/3552290?api_key=t0TVs3DtDT2H8Oy2Zy8m2eVrNsAVKAexjcZXUckd"
      },
      "neo_reference_id" : "3552290",
      "name" : "(2010 WH)",
      "nasa_jpl_url" : "http://ssd.jpl.nasa.gov/sbdb.cgi?sstr=3552290",
      "absolute_magnitude_h" : 19.0,
      "estimated_diameter" : {
        "kilometers" : {
          "estimated_diameter_min" : 0.4212646106,
          "estimated_diameter_max" : 0.9419763057
        },
        "meters" : {
          "estimated_diameter_min" : 421.2646105562,
          "estimated_diameter_max" : 941.9763057186
        },
        "miles" : {
          "estimated_diameter_min" : 0.2617616123,
          "estimated_diameter_max" : 0.5853167591
        },
        "feet" : {
          "estimated_diameter_min" : 1382.1017848971,
          "estimated_diameter_max" : 3090.4735428537
        }
      },
      "is_potentially_hazardous_asteroid" : false,
      "close_approach_data" : [ {
        "close_approach_date" : "2010-12-15",
        "epoch_date_close_approach" : 1292400000000,
        "relative_velocity" : {
          "kilometers_per_second" : "10.9442279523",
          "kilometers_per_hour" : "39399.2206284352",
          "miles_per_hour" : "24481.1435065963"
        },
        "miss_distance" : {
          "astronomical" : "0.4556351161",
          "lunar" : "177.2420654297",
          "kilometers" : "68162048",
          "miles" : "42353932"
        },
        "orbiting_body" : "Earth"
      } ],
      "orbital_data" : {
        "orbit_id" : "26",
        "orbit_determination_date" : "2017-04-06 08:55:38",
        "orbit_uncertainty" : "1",
        "minimum_orbit_intersection" : ".449524",
        "jupiter_tisserand_invariant" : "3.266",
        "epoch_osculation" : "2458000.5",
        "eccentricity" : ".4684017089978709",
        "semi_major_axis" : "2.422324189031669",
        "inclination" : "21.98431211070835",
        "ascending_node_longitude" : "46.64653272937176",
        "orbital_period" : "1377.040856547241",
        "perihelion_distance" : "1.287703399142354",
        "perihelion_argument" : "68.01911819591265",
        "aphelion_distance" : "3.556944978920985",
        "perihelion_time" : "2458332.561886123674",
        "mean_anomaly" : "273.1890107427457",
        "mean_motion" : ".2614301516823948",
        "equinox" : "J2000"
      }
    }, {
      "links" : {
        "self" : "https://api.nasa.gov/neo/rest/v1/neo/2262623?api_key=t0TVs3DtDT2H8Oy2Zy8m2eVrNsAVKAexjcZXUckd"
      },
      "neo_reference_id" : "2262623",
      "name" : "262623 (2006 WY2)",
      "nasa_jpl_url" : "http://ssd.jpl.nasa.gov/sbdb.cgi?sstr=2262623",
      "absolute_magnitude_h" : 18.6,
      "estimated_diameter" : {
        "kilometers" : {
          "estimated_diameter_min" : 0.5064714588,
          "estimated_diameter_max" : 1.1325046106
        },
        "meters" : {
          "estimated_diameter_min" : 506.4714588346,
          "estimated_diameter_max" : 1132.5046106177
        },
        "miles" : {
          "estimated_diameter_min" : 0.3147066768,
          "estimated_diameter_max" : 0.7037055224
        },
        "feet" : {
          "estimated_diameter_min" : 1661.651821003,
          "estimated_diameter_max" : 3715.566426699
        }
      },
      "is_potentially_hazardous_asteroid" : false,
      "close_approach_data" : [ {
        "close_approach_date" : "2010-12-15",
        "epoch_date_close_approach" : 1292400000000,
        "relative_velocity" : {
          "kilometers_per_second" : "14.8735289077",
          "kilometers_per_hour" : "53544.7040675843",
          "miles_per_hour" : "33270.5968135498"
        },
        "miss_distance" : {
          "astronomical" : "0.3926999042",
          "lunar" : "152.7602539062",
          "kilometers" : "58747068",
          "miles" : "36503736"
        },
        "orbiting_body" : "Earth"
      } ],
      "orbital_data" : {
        "orbit_id" : "185",
        "orbit_determination_date" : "2017-04-06 09:24:42",
        "orbit_uncertainty" : "0",
        "minimum_orbit_intersection" : ".254724",
        "jupiter_tisserand_invariant" : "6.019",
        "epoch_osculation" : "2458000.5",
        "eccentricity" : ".332838176743004",
        "semi_major_axis" : ".9832492898739239",
        "inclination" : "27.5521793707943",
        "ascending_node_longitude" : "99.84970603345906",
        "orbital_period" : "356.1179699417544",
        "perihelion_distance" : ".6559863889484336",
        "perihelion_argument" : "159.9468997302542",
        "aphelion_distance" : "1.310512190799414",
        "perihelion_time" : "2457866.415717216107",
        "mean_anomaly" : "135.5459310578918",
        "mean_motion" : "1.010900966493998",
        "equinox" : "J2000"
      }
    }, {
      "links" : {
        "self" : "https://api.nasa.gov/neo/rest/v1/neo/3759293?api_key=t0TVs3DtDT2H8Oy2Zy8m2eVrNsAVKAexjcZXUckd"
      },
      "neo_reference_id" : "3759293",
      "name" : "(2016 RJ20)",
      "nasa_jpl_url" : "http://ssd.jpl.nasa.gov/sbdb.cgi?sstr=3759293",
      "absolute_magnitude_h" : 23.6,
      "estimated_diameter" : {
        "kilometers" : {
          "estimated_diameter_min" : 0.0506471459,
          "estimated_diameter_max" : 0.1132504611
        },
        "meters" : {
          "estimated_diameter_min" : 50.6471458835,
          "estimated_diameter_max" : 113.2504610618
        },
        "miles" : {
          "estimated_diameter_min" : 0.0314706677,
          "estimated_diameter_max" : 0.0703705522
        },
        "feet" : {
          "estimated_diameter_min" : 166.1651821003,
          "estimated_diameter_max" : 371.5566426699
        }
      },
      "is_potentially_hazardous_asteroid" : false,
      "close_approach_data" : [ {
        "close_approach_date" : "2010-12-15",
        "epoch_date_close_approach" : 1292400000000,
        "relative_velocity" : {
          "kilometers_per_second" : "12.2621988913",
          "kilometers_per_hour" : "44143.9160086832",
          "miles_per_hour" : "27429.312699951"
        },
        "miss_distance" : {
          "astronomical" : "0.1561550557",
          "lunar" : "60.7443161011",
          "kilometers" : "23360464",
          "miles" : "14515519"
        },
        "orbiting_body" : "Earth"
      } ],
      "orbital_data" : {
        "orbit_id" : "5",
        "orbit_determination_date" : "2017-04-06 08:23:59",
        "orbit_uncertainty" : "6",
        "minimum_orbit_intersection" : ".00828972",
        "jupiter_tisserand_invariant" : "6.341",
        "epoch_osculation" : "2458000.5",
        "eccentricity" : ".5224785830367583",
        "semi_major_axis" : ".9249897519677948",
        "inclination" : "5.152429791312739",
        "ascending_node_longitude" : "153.3339942975987",
        "orbital_period" : "324.9404732467929",
        "perihelion_distance" : ".4417024170361388",
        "perihelion_argument" : "55.61450521477623",
        "aphelion_distance" : "1.408277086899451",
        "perihelion_time" : "2457888.269176176006",
        "mean_anomaly" : "124.3399942547374",
        "mean_motion" : "1.107895228941146",
        "equinox" : "J2000"
      }
    } ]
  }
}